OBJECT_NAME,OBJECT_ID,EPOCH,MEAN_MOTION,ECCENTRICITY,INCLINATION,RA_OF_ASC_NODE,ARG_OF_PERICENTER,MEAN_ANOMALY,EPHEMERIS_TYPE,CLASSIFICATION_TYPE,NORAD_CAT_ID,ELEMENT_SET_NO,REV_AT_EPOCH,BSTAR,MEAN_MOTION_DOT,MEAN_MOTION_DDOT
DTC TEST OBJECT A,2026-128A,2026-06-14T14:21:31.699584,15.55722543,.0008246,54.9942,316.9881,279.1395,80.8708,0,U,69472,999,82,.33017835E-3,.22719E-3,0
DTC TEST OBJECT B,2026-128B,2026-06-14T14:20:12.208128,15.56144226,.00083017,55.0033,316.9856,280.0789,79.9310,0,U,69473,999,81,.36012613E-3,.25228E-3,0
TJS-25,2026-129A,2026-06-11T11:34:53.014656,1.72502163,.7751889,16.5302,30.5351,199.9639,91.9387,0,U,69474,999,7,.19774E-2,.7407E-4,0
2026-132A,2026-132A,2026-06-14T11:38:32.021376,14.99042114,.00122426,97.6916,229.1961,281.3285,78.6562,0,U,69502,999,37,.5502872E-4,.609E-5,0
2026-132B,2026-132B,2026-06-14T10:02:12.300288,14.99133072,.00121843,97.6947,229.1315,283.7476,76.2390,0,U,69503,999,36,.30061215E-4,.306E-5,0
BRO-22,2026-132C,2026-06-14T06:48:38.485728,14.99755875,.0013698,97.6888,228.9971,295.8882,64.0929,0,U,69504,999,34,.12001E-3,.1425E-4,0
2026-132D,2026-132D,2026-06-13T09:58:23.387808,15.00977591,.00110344,97.6871,228.1350,315.3023,44.7311,0,U,69505,999,20,.12291978E-3,.1509E-4,0
2026-132E,2026-132E,2026-06-13T22:59:45.049920,14.93464297,.00028233,97.6694,228.6931,327.8572,32.2476,0,U,69506,999,29,.19336817E-3,.1978E-4,0
2026-132F,2026-132F,2026-06-13T09:58:10.881408,15.01040982,.00109152,97.6869,228.1362,319.8335,40.2082,0,U,69507,999,20,.25250362E-3,.317E-4,0
